start=new Date('2022-11-06T00:00:00.000Z').valueOf();
sats=[{"TLE_LINE1":"1 49155U 21082AB  22309.72403511 -.00000310  00000-0 -18141-4 0  9991","SITE":"AFWTR","APOAPSIS":"575.985","CLASSIFICATION_TYPE":"U","PERIOD":"96.107","MEAN_MOTION_DOT":"-0.00000310","ELEMENT_SET_NO":"999","EPHEMERIS_TYPE":"0","INCLINATION":"70.0025","NORAD_CAT_ID":"49155","DECAY_DATE":null,"EPOCH":"2022-11-05T17:22:36.633504","CENTER_NAME":"EARTH","SEMIMAJOR_AXIS":"6950.205","MEAN_ELEMENT_THEORY":"SGP4","RA_OF_ASC_NODE":"90.4157","MEAN_ANOMALY":"108.5939","RCS_SIZE":"LARGE","TIME_SYSTEM":"UTC","GP_ID":"216988709","MEAN_MOTION":"14.98326033","REV_AT_EPOCH":"6530","MEAN_MOTION_DDOT":"0.0000000000000","ECCENTRICITY":"0.00056320","BSTAR":"-0.00001814100000","TLE_LINE2":"2 49155  70.0025  90.4157 0005632 251.4608 108.5939 14.98326033 65306","OBJECT_NAME":"STARLINK-3060","ARG_OF_PERICENTER":"251.4608","PERIAPSIS":"568.156","REF_FRAME":"TEME","COUNTRY_CODE":"US","FILE":"3646149","LAUNCH_DATE":"2021-09-14","OBJECT_ID":"2021-082AB","OBJECT_TYPE":"PAYLOAD"},{"TLE_LINE1":"1 49156U 21082AC  22309.43791674 -.00000637  00000-0 -45595-4 0  9995","APOAPSIS":"574.348","SITE":"AFWTR","CLASSIFICATION_TYPE":"U","MEAN_MOTION_DOT":"-0.00000637","ELEMENT_SET_NO":"999","EPHEMERIS_TYPE":"0","PERIOD":"96.107","DECAY_DATE":null,"NORAD_CAT_ID":"49156","EPOCH":"2022-11-05T10:30:36.006336","INCLINATION":"69.9989","TIME_SYSTEM":"UTC","RCS_SIZE":"LARGE","GP_ID":"216964426","MEAN_MOTION":"14.98330354","SEMIMAJOR_AXIS":"6950.192","CENTER_NAME":"EARTH","MEAN_ANOMALY":"92.9125","RA_OF_ASC_NODE":"91.1372","MEAN_ELEMENT_THEORY":"SGP4","OBJECT_NAME":"STARLINK-3085","BSTAR":"-0.00004559500000","TLE_LINE2":"2 49156  69.9989  91.1372 0003297 267.1657  92.9125 14.98330354 65262","ARG_OF_PERICENTER":"267.1657","MEAN_MOTION_DDOT":"0.0000000000000","REV_AT_EPOCH":"6526","ECCENTRICITY":"0.00032970","FILE":"3645109","LAUNCH_DATE":"2021-09-14","PERIAPSIS":"569.765","COUNTRY_CODE":"US","REF_FRAME":"TEME","OBJECT_TYPE":"PAYLOAD","OBJECT_ID":"2021-082AC"},{"SEMIMAJOR_AXIS":"6950.177","CENTER_NAME":"EARTH","MEAN_ANOMALY":"140.5691","RA_OF_ASC_NODE":"110.8462","MEAN_ELEMENT_THEORY":"SGP4","RCS_SIZE":"LARGE","TIME_SYSTEM":"UTC","GP_ID":"217019416","MEAN_MOTION":"14.98335241","MEAN_MOTION_DDOT":"0.0000000000000","REV_AT_EPOCH":"6480","ECCENTRICITY":"0.00035310","OBJECT_NAME":"STARLINK-3051","BSTAR":"0.00008989200000","TLE_LINE2":"2 49157  69.9988 110.8462 0003531 219.5211 140.5691 14.98335241 64806","ARG_OF_PERICENTER":"219.5211","PERIAPSIS":"569.588","COUNTRY_CODE":"US","REF_FRAME":"TEME","FILE":"3646512","LAUNCH_DATE":"2021-09-14","OBJECT_ID":"2021-082AD","OBJECT_TYPE":"PAYLOAD","TLE_LINE1":"1 49157U 21082AD  22309.55104748  .00000980  00000-0  89892-4 0  9996","SITE":"AFWTR","APOAPSIS":"574.496","CLASSIFICATION_TYPE":"U","PERIOD":"96.107","MEAN_MOTION_DOT":"0.00000980","ELEMENT_SET_NO":"999","EPHEMERIS_TYPE":"0","INCLINATION":"69.9988","DECAY_DATE":null,"NORAD_CAT_ID":"49157","EPOCH":"2022-11-05T13:13:30.502272"},{"MEAN_MOTION_DDOT":"0.0000000000000","REV_AT_EPOCH":"6483","ECCENTRICITY":"0.00030580","OBJECT_NAME":"STARLINK-3083","BSTAR":"-0.00057465000000","TLE_LINE2":"2 49158  69.9981 110.3673 0003058 256.6367 103.4451 14.98361870 64839","ARG_OF_PERICENTER":"256.6367","SEMIMAJOR_AXIS":"6950.094","CENTER_NAME":"EARTH","MEAN_ANOMALY":"103.4451","RA_OF_ASC_NODE":"110.3673","MEAN_ELEMENT_THEORY":"SGP4","TIME_SYSTEM":"UTC","RCS_SIZE":"LARGE","GP_ID":"217020166","MEAN_MOTION":"14.98361870","OBJECT_ID":"2021-082AE","OBJECT_TYPE":"PAYLOAD","PERIAPSIS":"569.834","COUNTRY_CODE":"US","REF_FRAME":"TEME","FILE":"3646512","LAUNCH_DATE":"2021-09-14","CLASSIFICATION_TYPE":"U","SITE":"AFWTR","TLE_LINE1":"1 49158U 21082AE  22309.74655015 -.00006949  00000-0 -57465-3 0  9999","APOAPSIS":"574.085","INCLINATION":"69.9981","DECAY_DATE":null,"NORAD_CAT_ID":"49158","EPOCH":"2022-11-05T17:55:01.932960","PERIOD":"96.105","MEAN_MOTION_DOT":"-0.00006949","ELEMENT_SET_NO":"999","EPHEMERIS_TYPE":"0"},{"TIME_SYSTEM":"UTC","RCS_SIZE":"LARGE","GP_ID":"217018914","MEAN_MOTION":"14.98340926","CENTER_NAME":"EARTH","SEMIMAJOR_AXIS":"6950.159","RA_OF_ASC_NODE":"130.2851","MEAN_ELEMENT_THEORY":"SGP4","MEAN_ANOMALY":"120.9501","BSTAR":"0.00007466600000","TLE_LINE2":"2 49159  69.9995 130.2851 0003208 239.1342 120.9501 14.98340926 64345","OBJECT_NAME":"STARLINK-3056","ARG_OF_PERICENTER":"239.1342","REV_AT_EPOCH":"6434","MEAN_MOTION_DDOT":"0.0000000000000","ECCENTRICITY":"0.00032080","FILE":"3646512","LAUNCH_DATE":"2021-09-14","PERIAPSIS":"569.794","REF_FRAME":"TEME","COUNTRY_CODE":"US","OBJECT_TYPE":"PAYLOAD","OBJECT_ID":"2021-082AF","TLE_LINE1":"1 49159U 21082AF  22309.78339276  .00000798  00000-0  74666-4 0  9999","SITE":"AFWTR","APOAPSIS":"574.254","CLASSIFICATION_TYPE":"U","MEAN_MOTION_DOT":"0.00000798","ELEMENT_SET_NO":"999","EPHEMERIS_TYPE":"0","PERIOD":"96.106","NORAD_CAT_ID":"49159","DECAY_DATE":null,"EPOCH":"2022-11-05T18:48:05.134464","INCLINATION":"69.9995"},{"CENTER_NAME":"EARTH","SEMIMAJOR_AXIS":"6950.081","RA_OF_ASC_NODE":"130.2965","MEAN_ELEMENT_THEORY":"SGP4","MEAN_ANOMALY":"117.1582","TIME_SYSTEM":"UTC","RCS_SIZE":"LARGE","MEAN_MOTION":"14.98366153","GP_ID":"217019164","REV_AT_EPOCH":"6431","MEAN_MOTION_DDOT":"0.0000000000000","ECCENTRICITY":"0.00027800","TLE_LINE2":"2 49160  69.9980 130.2965 0002780 242.9293 117.1582 14.98366153 64312","BSTAR":"0.00040385000000","OBJECT_NAME":"STARLINK-3095","ARG_OF_PERICENTER":"242.9293","PERIAPSIS":"570.014","REF_FRAME":"TEME","COUNTRY_CODE":"US","FILE":"3646512","LAUNCH_DATE":"2021-09-14","OBJECT_ID":"2021-082AG","OBJECT_TYPE":"PAYLOAD","SITE":"AFWTR","TLE_LINE1":"1 49160U 21082AG  22309.77380391  .00004733  00000-0  40385-3 0  9997","APOAPSIS":"573.878","CLASSIFICATION_TYPE":"U","PERIOD":"96.105","MEAN_MOTION_DOT":"0.00004733","EPHEMERIS_TYPE":"0","ELEMENT_SET_NO":"999","INCLINATION":"69.9980","NORAD_CAT_ID":"49160","DECAY_DATE":null,"EPOCH":"2022-11-05T18:34:16.657824"},{"CLASSIFICATION_TYPE":"U","SITE":"AFWTR","TLE_LINE1":"1 49161U 21082AH  22309.77861618  .00000428  00000-0  43684-4 0  9997","APOAPSIS":"574.231","DECAY_DATE":null,"NORAD_CAT_ID":"49161","EPOCH":"2022-11-05T18:41:12.437952","INCLINATION":"69.9983","MEAN_MOTION_DOT":"0.00000428","EPHEMERIS_TYPE":"0","ELEMENT_SET_NO":"999","PERIOD":"96.107","OBJECT_NAME":"STARLINK-3080","BSTAR":"0.00004368400000","TLE_LINE2":"2 49161  69.9983 130.2751 0003159 236.3994 123.6864 14.98337244 64320","ARG_OF_PERICENTER":"236.3994","MEAN_MOTION_DDOT":"0.0000000000000","REV_AT_EPOCH":"6432","ECCENTRICITY":"0.00031590","RCS_SIZE":"LARGE","TIME_SYSTEM":"UTC","MEAN_MOTION":"14.98337244","GP_ID":"217019916","SEMIMAJOR_AXIS":"6950.170","CENTER_NAME":"EARTH","MEAN_ANOMALY":"123.6864","RA_OF_ASC_NODE":"130.2751","MEAN_ELEMENT_THEORY":"SGP4","OBJECT_TYPE":"PAYLOAD","OBJECT_ID":"2021-082AH","FILE":"3646512","LAUNCH_DATE":"2021-09-14","PERIAPSIS":"569.840","COUNTRY_CODE":"US","REF_FRAME":"TEME"},{"INCLINATION":"69.9993","DECAY_DATE":null,"NORAD_CAT_ID":"49162","EPOCH":"2022-11-05T18:27:28.333152","PERIOD":"96.107","MEAN_MOTION_DOT":"-0.00000332","ELEMENT_SET_NO":"999","EPHEMERIS_TYPE":"0","CLASSIFICATION_TYPE":"U","SITE":"AFWTR","TLE_LINE1":"1 49162U 21082AJ  22309.76907793 -.00000332  00000-0 -19997-4 0  9998","APOAPSIS":"574.099","OBJECT_ID":"2021-082AJ","OBJECT_TYPE":"PAYLOAD","PERIAPSIS":"569.978","COUNTRY_CODE":"US","REF_FRAME":"TEME","FILE":"3646512","LAUNCH_DATE":"2021-09-14","MEAN_MOTION_DDOT":"0.0000000000000","REV_AT_EPOCH":"6440","ECCENTRICITY":"0.00029650","OBJECT_NAME":"STARLINK-3082","TLE_LINE2":"2 49162  69.9993 130.3035 0002965 263.0025  97.0797 14.98336354 64403","BSTAR":"-0.00001999700000","ARG_OF_PERICENTER":"263.0025","SEMIMAJOR_AXIS":"6950.173","CENTER_NAME":"EARTH","MEAN_ANOMALY":"97.0797","RA_OF_ASC_NODE":"130.3035","MEAN_ELEMENT_THEORY":"SGP4","RCS_SIZE":"LARGE","TIME_SYSTEM":"UTC","GP_ID":"217019667","MEAN_MOTION":"14.98336354"},{"CLASSIFICATION_TYPE":"U","TLE_LINE1":"1 49163U 21082AK  22309.74178708  .00000468  00000-0  46976-4 0  9998","APOAPSIS":"574.150","SITE":"AFWTR","EPOCH":"2022-11-05T17:48:10.403712","DECAY_DATE":null,"NORAD_CAT_ID":"49163","INCLINATION":"69.9980","EPHEMERIS_TYPE":"0","ELEMENT_SET_NO":"999","MEAN_MOTION_DOT":"0.00000468","PERIOD":"96.107","ARG_OF_PERICENTER":"259.6603","OBJECT_NAME":"STARLINK-3088","BSTAR":"0.00004697600000","TLE_LINE2":"2 49163  69.9980 110.3810 0003028 259.6603 100.4215 14.98333885 64896","ECCENTRICITY":"0.00030280","MEAN_MOTION_DDOT":"0.0000000000000","REV_AT_EPOCH":"6489","GP_ID":"217018415","MEAN_MOTION":"14.98333885","TIME_SYSTEM":"UTC","RCS_SIZE":"LARGE","MEAN_ANOMALY":"100.4215","MEAN_ELEMENT_THEORY":"SGP4","RA_OF_ASC_NODE":"110.3810","SEMIMAJOR_AXIS":"6950.181","CENTER_NAME":"EARTH","OBJECT_TYPE":"PAYLOAD","OBJECT_ID":"2021-082AK","LAUNCH_DATE":"2021-09-14","FILE":"3646512","COUNTRY_CODE":"US","REF_FRAME":"TEME","PERIAPSIS":"569.941"},{"APOAPSIS":"574.336","TLE_LINE1":"1 49164U 21082AL  22309.73224965  .00000028  00000-0  10181-4 0  9996","SITE":"AFWTR","CLASSIFICATION_TYPE":"U","PERIOD":"96.107","MEAN_MOTION_DOT":"0.00000028","EPHEMERIS_TYPE":"0","ELEMENT_SET_NO":"999","INCLINATION":"69.9985","DECAY_DATE":null,"NORAD_CAT_ID":"49164","EPOCH":"2022-11-05T17:34:26.369760","SEMIMAJOR_AXIS":"6950.187","CENTER_NAME":"EARTH","MEAN_ANOMALY":"110.3132","MEAN_ELEMENT_THEORY":"SGP4","RA_OF_ASC_NODE":"110.3977","TIME_SYSTEM":"UTC","RCS_SIZE":"LARGE","GP_ID":"217018665","MEAN_MOTION":"14.98331943","MEAN_MOTION_DDOT":"0.0000000000000","REV_AT_EPOCH":"6490","ECCENTRICITY":"0.00032860","OBJECT_NAME":"STARLINK-3106","TLE_LINE2":"2 49164  69.9985 110.3977 0003286 249.7674 110.3132 14.98331943 64903","BSTAR":"0.00001018100000","ARG_OF_PERICENTER":"249.7674","PERIAPSIS":"569.768","COUNTRY_CODE":"US","REF_FRAME":"TEME","FILE":"3646512","LAUNCH_DATE":"2021-09-14","OBJECT_ID":"2021-082AL","OBJECT_TYPE":"PAYLOAD"}];
